SKYSAT-C1               
1 41601U 16040C   26187.62426664  .00007669  00000+0  21640-3 0  9996
2 41601  96.9556 218.2931 0001233  14.2930 345.8350 15.36647042560858
LAPAN-A3                
1 41603U 16040E   26188.61963356  .00002602  00000+0  83272-4 0  9994
2 41603  97.1498 184.0960 0008515 309.1892  50.8594 15.33244447557941
GAOFEN-3                
1 41727U 16049A   26188.61985466 -.00000045  00000+0 -42720-6 0  9992
2 41727  98.4017 196.0972 0001731  90.0385 270.1004 14.42217946521599
SKYSAT-C4               
1 41771U 16058B   26188.48875848  .00012130  00000+0  22367-3 0  9996
2 41771  96.9169 209.4180 0003162 130.0488 230.1042 15.49254680548612
SKYSAT-C5               
1 41772U 16058C   26187.92650128  .00006073  00000+0  18242-3 0  9993
2 41772  97.0459 227.6879 0002457 176.3166 183.8097 15.34766054546772
SKYSAT-C2               
1 41773U 16058D   26187.59401765  .00010488  00000+0  24350-3 0  9990
2 41773  97.0163 208.9626 0002559  24.3070 335.8299 15.42537650548048
SKYSAT-C3               
1 41774U 16058E   26188.44059502  .00017481  00000+0  27706-3 0  9992
2 41774  96.9001 218.5177 0002001 135.7039 224.4376 15.53450138549250
ALSAT-1B                
1 41785U 16059C   26188.62909608  .00000274  00000+0  50818-4 0  9999
2 41785  97.7754 196.5107 0009751 151.9553 208.2183 14.72290752523582
PATHFINDER 1            
1 41787U 16059E   26188.45309080  .00000513  00000+0  97813-4 0  9992
2 41787  97.8171 186.8151 0029413 139.4170 220.9236 14.67687014522687
SCATSAT 1               
1 41790U 16059H   26188.16397185  .00001178  00000+0  16084-3 0  9995
2 41790  98.1180 252.1355 0054617 182.2711 177.8260 14.79573399104540
GOKTURK 1A              
1 41875U 16073A   26188.63002905  .00000285  00000+0  65090-4 0  9990
2 41875  98.1220  82.9813 0001390  78.6529 281.4829 14.62789995511810
RESOURCESAT-2A          
1 41877U 16074A   26188.62244933  .00000331  00000+0  17095-3 0  9994
2 41877  98.7516 261.9597 0002812  44.1412 315.9990 14.21608143497201
CARTOSAT-2D             
1 41948U 17008A   26188.64211556  .00006298  00000+0  30188-3 0  9994
2 41948  97.4089 247.5658 0005206 161.1610 198.9819 15.19252024520688
SENTINEL-2B             
1 42063U 17013A   26188.55714137  .00000248  00000+0  11124-3 0  9990
2 42063  98.5680 263.0442 0001193  89.3734 270.7585 14.30814401487551
CARTOSAT-2E             
1 42767U 17036C   26188.59387400  .00002884  00000+0  14021-3 0  9996
2 42767  97.4263 248.0593 0002607 219.4448 140.6597 15.19216107501244
FORMOSAT-5              
1 42920U 17049A   26188.53494798  .00000107  00000+0  38215-4 0  9992
2 42920  98.2248 263.3923 0011852  26.8502 333.3304 14.50906336469623
SENTINEL-5P             
1 42969U 17064A   26188.29036814  .00000042  00000+0  40959-4 0  9992
2 42969  98.7927 130.2790 0001108  92.5300 267.6003 14.19522407452410
SKYSAT-C11              
1 42987U 17068A   26187.96261653  .00023637  00000+0  30510-3 0  9996
2 42987  97.4374 337.6719 0000652 158.6283 201.5000 15.58985087486325
SKYSAT-C10              
1 42988U 17068B   26187.91668503  .00008421  00000+0  25039-3 0  9991
2 42988  97.4529 324.9630 0001286 108.8962 251.2421 15.35000808485382
SKYSAT-C9               
1 42989U 17068C   26188.61788365  .00008865  00000+0  20917-3 0  9991
2 42989  97.4447 326.8037 0009183  69.0692 291.1537 15.42083508485901
SKYSAT-C8               
1 42990U 17068D   26187.92284445  .00008297  00000+0  22874-3 0  9999
2 42990  97.4547 324.8452 0001189  97.2210 262.9170 15.37378325485345
SKYSAT-C7               
1 42991U 17068E   26188.17743158  .00007466  00000+0  20626-3 0  9999
2 42991  97.4556 326.0941 0006414  47.3462 312.8322 15.37334035485449
SKYSAT-C6               
1 42992U 17068F   26187.90932487  .00006719  00000+0  20626-3 0  9995
2 42992  97.4672 325.7029 0005363 104.5619 255.6218 15.34062756485346
CARTOSAT-2F             
1 43111U 18004A   26188.56064297  .00006056  00000+0  29061-3 0  9994
2 43111  97.4776 247.9958 0002116 150.9562 209.1791 15.19238236470420
GAOFEN-1 02             
1 43259U 18031A   26188.56209058  .00001064  00000+0  16033-3 0  9992
2 43259  98.0511 251.0314 0001910 327.9492  32.1601 14.76467818445707
GAOFEN-1 03             
1 43260U 18031B   26188.60791328  .00000578  00000+0  90524-4 0  9992
2 43260  98.0507 250.9331 0002984  35.3619 324.7788 14.76455363445702
GAOFEN-1 04             
1 43262U 18031D   26188.58365881  .00000525  00000+0  82849-4 0  9995
2 43262  98.0513 251.1026 0001607  58.1755 301.9611 14.76464656445695
SENTINEL-3B             
1 43437U 18039A   26188.17671326  .00000082  00000+0  51893-4 0  9999
2 43437  98.6239 255.4214 0000963 118.9874 241.1403 14.26740486426974
GAOFEN-5 01             
1 43461U 18043A   26187.92812406  .00000306  00000+0  72983-4 0  9991
2 43461  98.4582 159.9303 0002527  48.2005 311.9410 14.60619540434579
GAOFEN-6                
1 43484U 18048A   26188.67354038 -.00000039  00000+0  18954-5 0  9999
2 43484  98.0964 251.3578 0012089 103.7097 256.5459 14.76377504436417
