OBJECT_NAME,OBJECT_ID,EPOCH,MEAN_MOTION,ECCENTRICITY,INCLINATION,RA_OF_ASC_NODE,ARG_OF_PERICENTER,MEAN_ANOMALY,EPHEMERIS_TYPE,CLASSIFICATION_TYPE,NORAD_CAT_ID,ELEMENT_SET_NO,REV_AT_EPOCH,BSTAR,MEAN_MOTION_DOT,MEAN_MOTION_DDOT
SKYSAT-C1,2016-040C,2026-07-06T14:58:56.637696,15.36647042,.00012336,96.9556,218.2931,14.2930,345.8350,0,U,41601,999,56085,.21640269E-3,.7669E-4,0
LAPAN-A3,2016-040E,2026-07-07T14:52:16.339584,15.33244447,.00085159,97.1498,184.0960,309.1892,50.8594,0,U,41603,999,55794,.83272156E-4,.2602E-4,0
GAOFEN-3,2016-049A,2026-07-07T14:52:35.442624,14.42217946,.00017311,98.4017,196.0972,90.0385,270.1004,0,U,41727,999,52159,-.427196E-6,-.45E-6,0
SKYSAT-C4,2016-058B,2026-07-07T11:43:48.732672,15.49254680,.00031627,96.9169,209.4180,130.0488,230.1042,0,U,41771,999,54861,.22367371E-3,.1213E-3,0
SKYSAT-C5,2016-058C,2026-07-06T22:14:09.710592,15.34766054,.0002457,97.0459,227.6879,176.3166,183.8097,0,U,41772,999,54677,.18242404E-3,.6073E-4,0
SKYSAT-C2,2016-058D,2026-07-06T14:15:23.124960,15.42537650,.00025596,97.0163,208.9626,24.3070,335.8299,0,U,41773,999,54804,.24349585E-3,.10488E-3,0
SKYSAT-C3,2016-058E,2026-07-07T10:34:27.409728,15.53450138,.00020012,96.9001,218.5177,135.7039,224.4376,0,U,41774,999,54925,.27706479E-3,.17481E-3,0
ALSAT-1B,2016-059C,2026-07-07T15:05:53.901312,14.72290752,.00097515,97.7754,196.5107,151.9553,208.2183,0,U,41785,999,52358,.50818076E-4,.274E-5,0
PATHFINDER 1,2016-059E,2026-07-07T10:52:27.045120,14.67687014,.00294138,97.8171,186.8151,139.4170,220.9236,0,U,41787,999,52268,.97812624E-4,.513E-5,0
SCATSAT 1,2016-059H,2026-07-07T03:56:07.167840,14.79573399,.00546176,98.1180,252.1355,182.2711,177.8260,0,U,41790,999,10454,.16084363E-3,.1178E-4,0
GOKTURK 1A,2016-073A,2026-07-07T15:07:14.509920,14.62789995,.00013909,98.1220,82.9813,78.6529,281.4829,0,U,41875,999,51181,.65090262E-4,.285E-5,0
RESOURCESAT-2A,2016-074A,2026-07-07T14:56:19.622112,14.21608143,.00028122,98.7516,261.9597,44.1412,315.9990,0,U,41877,999,49720,.17094981E-3,.331E-5,0
CARTOSAT-2D,2017-008A,2026-07-07T15:24:38.784384,15.19252024,.00052069,97.4089,247.5658,161.1610,198.9819,0,U,41948,999,52068,.30187825E-3,.6298E-4,0
SENTINEL-2B,2017-013A,2026-07-07T13:22:17.014368,14.30814401,.00011931,98.5680,263.0442,89.3734,270.7585,0,U,42063,999,48755,.11124451E-3,.248E-5,0
CARTOSAT-2E,2017-036C,2026-07-07T14:15:10.713600,15.19216107,.0002607,97.4263,248.0593,219.4448,140.6597,0,U,42767,999,50124,.14021E-3,.2884E-4,0
FORMOSAT-5,2017-049A,2026-07-07T12:50:19.505472,14.50906336,.0011852,98.2248,263.3923,26.8502,333.3304,0,U,42920,999,46962,.38215263E-4,.107E-5,0
SENTINEL-5P,2017-064A,2026-07-07T06:58:07.807296,14.19522407,.00011083,98.7927,130.2790,92.5300,267.6003,0,U,42969,999,45241,.409592E-4,.42E-6,0
SKYSAT-C11,2017-068A,2026-07-06T23:06:10.068192,15.58985087,.00006522,97.4374,337.6719,158.6283,201.5000,0,U,42987,999,48632,.30509951E-3,.23637E-3,0
SKYSAT-C10,2017-068B,2026-07-06T22:00:01.586592,15.35000808,.00012861,97.4529,324.9630,108.8962,251.2421,0,U,42988,999,48538,.25039043E-3,.8421E-4,0
SKYSAT-C9,2017-068C,2026-07-07T14:49:45.147360,15.42083508,.00091835,97.4447,326.8037,69.0692,291.1537,0,U,42989,999,48590,.20916695E-3,.8865E-4,0
SKYSAT-C8,2017-068D,2026-07-06T22:08:53.760480,15.37378325,.00011896,97.4547,324.8452,97.2210,262.9170,0,U,42990,999,48534,.22873875E-3,.8297E-4,0
SKYSAT-C7,2017-068E,2026-07-07T04:15:30.088512,15.37334035,.00064145,97.4556,326.0941,47.3462,312.8322,0,U,42991,999,48544,.20626111E-3,.7466E-4,0
SKYSAT-C6,2017-068F,2026-07-06T21:49:25.668768,15.34062756,.00053637,97.4672,325.7029,104.5619,255.6218,0,U,42992,999,48534,.20625961E-3,.6719E-4,0
CARTOSAT-2F,2018-004A,2026-07-07T13:27:19.552608,15.19238236,.00021168,97.4776,247.9958,150.9562,209.1791,0,U,43111,999,47042,.29061282E-3,.6056E-4,0
GAOFEN-1 02,2018-031A,2026-07-07T13:29:24.626112,14.76467818,.00019109,98.0511,251.0314,327.9492,32.1601,0,U,43259,999,44570,.1603264E-3,.1064E-4,0
GAOFEN-1 03,2018-031B,2026-07-07T14:35:23.707392,14.76455363,.00029848,98.0507,250.9331,35.3619,324.7788,0,U,43260,999,44570,.9052356E-4,.578E-5,0
GAOFEN-1 04,2018-031D,2026-07-07T14:00:28.121184,14.76464656,.00016073,98.0513,251.1026,58.1755,301.9611,0,U,43262,999,44569,.82849128E-4,.525E-5,0
SENTINEL-3B,2018-039A,2026-07-07T04:14:28.025664,14.26740486,.00009635,98.6239,255.4214,118.9874,241.1403,0,U,43437,999,42697,.51893069E-4,.82E-6,0
GAOFEN-5 01,2018-043A,2026-07-06T22:16:29.918784,14.60619540,.00025272,98.4582,159.9303,48.2005,311.9410,0,U,43461,999,43457,.7298252E-4,.306E-5,0
GAOFEN-6,2018-048A,2026-07-07T16:09:53.888832,14.76377504,.0012089,98.0964,251.3578,103.7097,256.5459,0,U,43484,999,43641,.18954E-5,-.39E-6,0
